ORBCOMM FM24            
1 25478U 98053D   25272.64097509  .00002475  00000+0  85096-3 0  9997
2 25478  45.0062 133.7502 0002934  34.5584 325.5455 14.38352069412482
ORBCOMM FM25            
1 25479U 98053E   25272.68389404  .00002277  00000+0  78703-3 0  9997
2 25479  45.0054 131.8328 0005211  47.0710 313.0575 14.38319462412788
ORBCOMM FM26            
1 25480U 98053F   25272.76495168  .00002091  00000+0  74114-3 0  9999
2 25480  45.0052 128.6713 0006882  65.1264 295.0299 14.37343611412694
ORBCOMM FM27            
1 25481U 98053G   25272.59983067  .00002529  00000+0  86875-3 0  9994
2 25481  45.0038 132.3951 0001473  41.9817 318.1144 14.38355288412704
ORBCOMM FM28            
1 25482U 98053H   25272.83301742  .00002358  00000+0  81044-3 0  9999
2 25482  45.0047  68.6461 0005051 114.6608 245.4767 14.38513719413422
ORBCOMM FM30            
1 25980U 99065A   25272.11745478  .00001973  00000+0  69960-3 0  9990
2 25980  45.0317 317.7098 0007065 189.8100 170.2612 14.37508350349401
ORBCOMM FM31            
1 25981U 99065B   25272.23436217  .00001771  00000+0  63373-3 0  9990
2 25981  45.0236 310.6223 0005412 219.4864 140.5590 14.37436181348973
ORBCOMM FM32            
1 25982U 99065C   25272.55843382  .00002161  00000+0  77731-3 0  9998
2 25982  45.0161 326.3661 0007719 207.9781 152.0653 14.36496077349601
